[{"OBJECT_NAME":"STARLINK-31511","OBJECT_ID":"2024-068H","EPOCH":"2026-03-09T07:34:28.879392","MEAN_MOTION":15.27576819,"ECCENTRICITY":0.00013745,"INCLINATION":43.0023,"RA_OF_ASC_NODE":36.79,"ARG_OF_PERICENTER":254.748,"MEAN_ANOMALY":105.322,"EPHEMERIS_TYPE":0,"CLASSIFICATION_TYPE":"U","NORAD_CAT_ID":59462,"ELEMENT_SET_NO":999,"REV_AT_EPOCH":10846,"BSTAR":-5.07593e-6,"MEAN_MOTION_DOT":-4.02e-6,"MEAN_MOTION_DDOT":0},{"OBJECT_NAME":"OBJECT D","OBJECT_ID":"2024-173D","EPOCH":"2026-03-09T23:30:29.956896","MEAN_MOTION":15.27005733,"ECCENTRICITY":0.00090093,"INCLINATION":97.3606,"RA_OF_ASC_NODE":149.3901,"ARG_OF_PERICENTER":241.6081,"MEAN_ANOMALY":118.425,"EPHEMERIS_TYPE":0,"CLASSIFICATION_TYPE":"U","NORAD_CAT_ID":61230,"ELEMENT_SET_NO":999,"REV_AT_EPOCH":8130,"BSTAR":0.00072064626,"MEAN_MOTION_DOT":0.00019078,"MEAN_MOTION_DDOT":0}]
